{
  "type": "FeatureCollection",
  "features": [
    {
      "type": "Feature",
      "properties": {
        "norad_id": 37994,
        "name": "COSMOS 2251 DEB",
        "group": "cosmos-2251-debris",
        "lat": 6.632904223454853,
        "lon": 66.93373546159567,
        "alt_km": 776.2355835599619,
        "timestamp": "2025-12-27T06:41:31.323723+00:00",
        "meta_object_name": "COSMOS 2251 DEB",
        "meta_object_id": "1993-036BQV",
        "meta_epoch": "2025-12-26T23:13:08.345280",
        "meta_mean_motion": 14.3965477,
        "meta_eccentricity": 0.00234285,
        "meta_inclination": 74.0359,
        "meta_ra_of_asc_node": 249.4161,
        "meta_arg_of_pericenter": 326.5935,
        "meta_mean_anomaly": 33.3741,
        "meta_ephemeris_type": 0,
        "meta_classification_type": "U",
        "meta_norad_cat_id": 37994,
        "meta_element_set_no": 999,
        "meta_rev_at_epoch": 77269,
        "meta_bstar": 0.00036225662,
        "meta_mean_motion_dot": 1.11e-05,
        "meta_mean_motion_ddot": 0,
        "tle_line1": "1 37994U 93036BQV 25360.96745770  .00001110  00000+0  36226-3 0  9998",
        "tle_line2": "2 37994  74.0359 249.4161 0023428 326.5935  33.3741 14.39654770772699"
      },
      "geometry": {
        "type": "Point",
        "coordinates": [
          66.93373546159567,
          6.632904223454853
        ]
      }
    },
    {
      "type": "Feature",
      "properties": {
        "norad_id": 37998,
        "name": "COSMOS 2251 DEB",
        "group": "cosmos-2251-debris",
        "lat": 21.32872152621483,
        "lon": -145.57909252917713,
        "alt_km": 743.2908623151861,
        "timestamp": "2025-12-27T06:41:31.323734+00:00",
        "meta_object_name": "COSMOS 2251 DEB",
        "meta_object_id": "1993-036BQZ",
        "meta_epoch": "2025-12-19T00:55:56.823168",
        "meta_mean_motion": 14.45502343,
        "meta_eccentricity": 0.00202427,
        "meta_inclination": 74.0345,
        "meta_ra_of_asc_node": 223.3597,
        "meta_arg_of_pericenter": 295.5973,
        "meta_mean_anomaly": 64.3093,
        "meta_ephemeris_type": 0,
        "meta_classification_type": "U",
        "meta_norad_cat_id": 37998,
        "meta_element_set_no": 999,
        "meta_rev_at_epoch": 64378,
        "meta_bstar": 0.00035299512,
        "meta_mean_motion_dot": 1.221e-05,
        "meta_mean_motion_ddot": 0,
        "tle_line1": "1 37998U 93036BQZ 25353.03885212  .00001221  00000+0  35300-3 0  9993",
        "tle_line2": "2 37998  74.0345 223.3597 0020242 295.5973  64.3093 14.45502343643786"
      },
      "geometry": {
        "type": "Point",
        "coordinates": [
          -145.57909252917713,
          21.32872152621483
        ]
      }
    },
    {
      "type": "Feature",
      "properties": {
        "norad_id": 38001,
        "name": "COSMOS 2251 DEB",
        "group": "cosmos-2251-debris",
        "lat": -56.34559390747944,
        "lon": 78.13818258494885,
        "alt_km": 608.5366244637962,
        "timestamp": "2025-12-27T06:41:31.323744+00:00",
        "meta_object_name": "COSMOS 2251 DEB",
        "meta_object_id": "1993-036BRC",
        "meta_epoch": "2025-12-26T06:45:30.906144",
        "meta_mean_motion": 14.79238108,
        "meta_eccentricity": 0.0065371,
        "meta_inclination": 74.0014,
        "meta_ra_of_asc_node": 105.6313,
        "meta_arg_of_pericenter": 252.6722,
        "meta_mean_anomaly": 138.5289,
        "meta_ephemeris_type": 0,
        "meta_classification_type": "U",
        "meta_norad_cat_id": 38001,
        "meta_element_set_no": 999,
        "meta_rev_at_epoch": 74908,
        "meta_bstar": 0.00092588,
        "meta_mean_motion_dot": 7.103e-05,
        "meta_mean_motion_ddot": 0,
        "tle_line1": "1 38001U 93036BRC 25360.28160771  .00007103  00000+0  92588-3 0  9996",
        "tle_line2": "2 38001  74.0014 105.6313 0065371 252.6722 138.5289 14.79238108749084"
      },
      "geometry": {
        "type": "Point",
        "coordinates": [
          78.13818258494885,
          -56.34559390747944
        ]
      }
    },
    {
      "type": "Feature",
      "properties": {
        "norad_id": 38006,
        "name": "COSMOS 2251 DEB",
        "group": "cosmos-2251-debris",
        "lat": -35.64819575872105,
        "lon": -157.3630399248432,
        "alt_km": 747.7436517303777,
        "timestamp": "2025-12-27T06:41:31.323754+00:00",
        "meta_object_name": "COSMOS 2251 DEB",
        "meta_object_id": "1993-036BRH",
        "meta_epoch": "2025-12-10T03:36:37.956384",
        "meta_mean_motion": 14.45867865,
        "meta_eccentricity": 0.00758537,
        "meta_inclination": 73.8744,
        "meta_ra_of_asc_node": 42.933,
        "meta_arg_of_pericenter": 348.3853,
        "meta_mean_anomaly": 11.555,
        "meta_ephemeris_type": 0,
        "meta_classification_type": "U",
        "meta_norad_cat_id": 38006,
        "meta_element_set_no": 999,
        "meta_rev_at_epoch": 62922,
        "meta_bstar": 0.0047338847,
        "meta_mean_motion_dot": 0.00017443,
        "meta_mean_motion_ddot": 0,
        "tle_line1": "1 38006U 93036BRH 25344.15043931  .00017443  00000+0  47339-2 0  9998",
        "tle_line2": "2 38006  73.8744  42.9330 0075853 348.3853  11.5550 14.45867865629227"
      },
      "geometry": {
        "type": "Point",
        "coordinates": [
          -157.3630399248432,
          -35.64819575872105
        ]
      }
    },
    {
      "type": "Feature",
      "properties": {
        "norad_id": 38054,
        "name": "COSMOS 2251 DEB",
        "group": "cosmos-2251-debris",
        "lat": -73.43950723498345,
        "lon": 166.54569607969827,
        "alt_km": 883.04959198101,
        "timestamp": "2025-12-27T06:41:31.323764+00:00",
        "meta_object_name": "COSMOS 2251 DEB",
        "meta_object_id": "1993-036BRL",
        "meta_epoch": "2025-12-25T03:01:07.010112",
        "meta_mean_motion": 13.62393869,
        "meta_eccentricity": 0.03570212,
        "meta_inclination": 73.9517,
        "meta_ra_of_asc_node": 245.5222,
        "meta_arg_of_pericenter": 221.1559,
        "meta_mean_anomaly": 293.5582,
        "meta_ephemeris_type": 0,
        "meta_classification_type": "U",
        "meta_norad_cat_id": 38054,
        "meta_element_set_no": 999,
        "meta_rev_at_epoch": 67348,
        "meta_bstar": 0.0017292358,
        "meta_mean_motion_dot": 2.033e-05,
        "meta_mean_motion_ddot": 0,
        "tle_line1": "1 38054U 93036BRL 25359.12577558  .00002033  00000+0  17292-2 0  9995",
        "tle_line2": "2 38054  73.9517 245.5222 0357021 221.1559 293.5582 13.62393869673481"
      },
      "geometry": {
        "type": "Point",
        "coordinates": [
          166.54569607969827,
          -73.43950723498345
        ]
      }
    },
    {
      "type": "Feature",
      "properties": {
        "norad_id": 38055,
        "name": "COSMOS 2251 DEB",
        "group": "cosmos-2251-debris",
        "lat": 71.15558192957853,
        "lon": -124.6243426378263,
        "alt_km": 665.1733032303173,
        "timestamp": "2025-12-27T06:41:31.323774+00:00",
        "meta_object_name": "COSMOS 2251 DEB",
        "meta_object_id": "1993-036BRM",
        "meta_epoch": "2025-12-26T04:52:48.177696",
        "meta_mean_motion": 14.77111908,
        "meta_eccentricity": 0.00661826,
        "meta_inclination": 74.0079,
        "meta_ra_of_asc_node": 180.3155,
        "meta_arg_of_pericenter": 305.0228,
        "meta_mean_anomaly": 177.6767,
        "meta_ephemeris_type": 0,
        "meta_classification_type": "U",
        "meta_norad_cat_id": 38055,
        "meta_element_set_no": 999,
        "meta_rev_at_epoch": 60881,
        "meta_bstar": 0.00074914233,
        "meta_mean_motion_dot": 5.457e-05,
        "meta_mean_motion_ddot": 0,
        "tle_line1": "1 38055U 93036BRM 25360.20333539  .00005457  00000+0  74914-3 0  9994",
        "tle_line2": "2 38055  74.0079 180.3155 0066182 305.0228 177.6767 14.77111908608819"
      },
      "geometry": {
        "type": "Point",
        "coordinates": [
          -124.6243426378263,
          71.15558192957853
        ]
      }
    },
    {
      "type": "Feature",
      "properties": {
        "norad_id": 38060,
        "name": "COSMOS 2251 DEB",
        "group": "cosmos-2251-debris",
        "lat": -22.95793527481277,
        "lon": -99.56028292507466,
        "alt_km": 650.9252848621354,
        "timestamp": "2025-12-27T06:41:31.323785+00:00",
        "meta_object_name": "COSMOS 2251 DEB",
        "meta_object_id": "1993-036BRS",
        "meta_epoch": "2025-12-25T12:09:27.527040",
        "meta_mean_motion": 14.63928646,
        "meta_eccentricity": 0.0058702,
        "meta_inclination": 74.0433,
        "meta_ra_of_asc_node": 270.8015,
        "meta_arg_of_pericenter": 13.4821,
        "meta_mean_anomaly": 346.7897,
        "meta_ephemeris_type": 0,
        "meta_classification_type": "U",
        "meta_norad_cat_id": 38060,
        "meta_element_set_no": 999,
        "meta_rev_at_epoch": 72151,
        "meta_bstar": 0.00055069,
        "meta_mean_motion_dot": 2.924e-05,
        "meta_mean_motion_ddot": 0,
        "tle_line1": "1 38060U 93036BRS 25359.50656860  .00002924  00000+0  55069-3 0  9992",
        "tle_line2": "2 38060  74.0433 270.8015 0058702  13.4821 346.7897 14.63928646721513"
      },
      "geometry": {
        "type": "Point",
        "coordinates": [
          -99.56028292507466,
          -22.95793527481277
        ]
      }
    }
  ]
}